CORVUS BC2              
1 42846U 17042X   26068.92684092  .00004947  00000+0  34626-3 0  9997
2 42846  97.3955 234.2405 0014586  92.3850 267.9047 15.05610206472122
STARLINK-3801           
1 52356U 22045AB  26068.67789744  .00000793  00000+0  67932-4 0  9997
2 52356  53.2178 199.2038 0001211  93.6866 266.4265 15.08835974215788
